[{"OBJECT_NAME":"STARLINK-2065","OBJECT_ID":"2021-012BE","EPOCH":"2026-03-09T06:02:29.895360","MEAN_MOTION":15.6876286,"ECCENTRICITY":0.0006678,"INCLINATION":53.1532,"RA_OF_ASC_NODE":11.1448,"ARG_OF_PERICENTER":48.9965,"MEAN_ANOMALY":311.1629,"EPHEMERIS_TYPE":0,"CLASSIFICATION_TYPE":"U","NORAD_CAT_ID":47672,"ELEMENT_SET_NO":999,"REV_AT_EPOCH":28079,"BSTAR":0.00096339732,"MEAN_MOTION_DOT":0.00113313,"MEAN_MOTION_DDOT":0},{"OBJECT_NAME":"STARLINK-11473 [DTC]","OBJECT_ID":"2024-217D","EPOCH":"2026-03-09T06:23:04.225632","MEAN_MOTION":15.69703182,"ECCENTRICITY":0.00012687,"INCLINATION":53.1574,"RA_OF_ASC_NODE":73.5928,"ARG_OF_PERICENTER":81.2542,"MEAN_ANOMALY":278.8619,"EPHEMERIS_TYPE":0,"CLASSIFICATION_TYPE":"U","NORAD_CAT_ID":62060,"ELEMENT_SET_NO":999,"REV_AT_EPOCH":7510,"BSTAR":0.0015542493,"MEAN_MOTION_DOT":0.00192074,"MEAN_MOTION_DDOT":0}]
